{"type": "FeatureCollection", "features": [ {"type": "Feature", "properties": {"norad_id": 31441, "name": "FENGYUN 1C DEB", "group": "fengyun-1c-debris", "lat": 50.825345634140156, "lon": -152.72068641177535, "alt_km": 651.14171483883, "timestamp": "2025-12-20T20:38:44.725083+00:00", "meta": {"OBJECT_NAME": "FENGYUN 1C DEB", "OBJECT_ID": "1999-025BUD", "EPOCH": "2025-12-19T10:14:22.206624", "MEAN_MOTION": 14.7563176, "ECCENTRICITY": 0.0101893, "INCLINATION": 99.3115, "RA_OF_ASC_NODE": 217.2464, "ARG_OF_PERICENTER": 315.2851, "MEAN_ANOMALY": 44.0171, "EPHEMERIS_TYPE": 0, "CLASSIFICATION_TYPE": "U", "NORAD_CAT_ID": 31441, "ELEMENT_SET_NO": 999, "REV_AT_EPOCH": 64189, "BSTAR": 0.0033663, "MEAN_MOTION_DOT": 0.00025022, "MEAN_MOTION_DDOT": 0}, "tle": {"line1": "1 31441U 99025BUD 25353.42664591  .00025022  00000+0  33663-2 0  9996", "line2": "2 31441  99.3115 217.2464 0101893 315.2851  44.0171 14.75631760641891"}}, "geometry": {"type": "Point", "coordinates": [-152.72068641177535, 50.825345634140156]}}, {"type": "Feature", "properties": {"norad_id": 31442, "name": "FENGYUN 1C DEB", "group": "fengyun-1c-debris", "lat": -81.28178437557649, "lon": 158.91397654979676, "alt_km": 772.8640477292993, "timestamp": "2025-12-20T20:38:44.725094+00:00", "meta": {"OBJECT_NAME": "FENGYUN 1C DEB", "OBJECT_ID": "1999-025BUE", "EPOCH": "2025-12-19T23:16:52.666464", "MEAN_MOTION": 14.33942527, "ECCENTRICITY": 0.00786733, "INCLINATION": 98.5308, "RA_OF_ASC_NODE": 79.8521, "ARG_OF_PERICENTER": 351.4576, "MEAN_ANOMALY": 8.5265, "EPHEMERIS_TYPE": 0, "CLASSIFICATION_TYPE": "U", "NORAD_CAT_ID": 31442, "ELEMENT_SET_NO": 999, "REV_AT_EPOCH": 97464, "BSTAR": 0.00024159685, "MEAN_MOTION_DOT": 6.53e-06, "MEAN_MOTION_DDOT": 0}, "tle": {"line1": "1 31442U 99025BUE 25353.97005401  .00000653  00000+0  24160-3 0  9992", "line2": "2 31442  98.5308  79.8521 0078673 351.4576   8.5265 14.33942527974649"}}, "geometry": {"type": "Point", "coordinates": [158.91397654979676, -81.28178437557649]}}, {"type": "Feature", "properties": {"norad_id": 31443, "name": "FENGYUN 1C DEB", "group": "fengyun-1c-debris", "lat": 49.64555669925233, "lon": 84.06566546832359, "alt_km": 599.8818040739079, "timestamp": "2025-12-20T20:38:44.725104+00:00", "meta": {"OBJECT_NAME": "FENGYUN 1C DEB", "OBJECT_ID": "1999-025BUF", "EPOCH": "2025-12-20T00:31:43.149216", "MEAN_MOTION": 14.4875373, "ECCENTRICITY": 0.01915269, "INCLINATION": 99.2114, "RA_OF_ASC_NODE": 94.1613, "ARG_OF_PERICENTER": 76.607, "MEAN_ANOMALY": 285.6392, "EPHEMERIS_TYPE": 0, "CLASSIFICATION_TYPE": "U", "NORAD_CAT_ID": 31443, "ELEMENT_SET_NO": 999, "REV_AT_EPOCH": 67047, "BSTAR": 0.00066428156, "MEAN_MOTION_DOT": 3.104e-05, "MEAN_MOTION_DDOT": 0}, "tle": {"line1": "1 31443U 99025BUF 25354.02202719  .00003104  00000+0  66428-3 0  9998", "line2": "2 31443  99.2114  94.1613 0191526  76.6070 285.6392 14.48753730670478"}}, "geometry": {"type": "Point", "coordinates": [84.06566546832359, 49.64555669925233]}}, {"type": "Feature", "properties": {"norad_id": 31444, "name": "FENGYUN 1C DEB", "group": "fengyun-1c-debris", "lat": -75.43790999189302, "lon": -25.105780393196248, "alt_km": 694.0119603322228, "timestamp": "2025-12-20T20:38:44.725114+00:00", "meta": {"OBJECT_NAME": "FENGYUN 1C DEB", "OBJECT_ID": "1999-025BUG", "EPOCH": "2025-12-15T13:34:49.333728", "MEAN_MOTION": 14.69963952, "ECCENTRICITY": 0.00627859, "INCLINATION": 98.9275, "RA_OF_ASC_NODE": 291.8692, "ARG_OF_PERICENTER": 63.9063, "MEAN_ANOMALY": 296.8584, "EPHEMERIS_TYPE": 0, "CLASSIFICATION_TYPE": "U", "NORAD_CAT_ID": 31444, "ELEMENT_SET_NO": 999, "REV_AT_EPOCH": 97530, "BSTAR": 0.00094331949, "MEAN_MOTION_DOT": 5.769e-05, "MEAN_MOTION_DDOT": 0}, "tle": {"line1": "1 31444U 99025BUG 25349.56584877  .00005769  00000+0  94332-3 0  9994", "line2": "2 31444  98.9275 291.8692 0062785  63.9063 296.8584 14.69963952975300"}}, "geometry": {"type": "Point", "coordinates": [-25.105780393196248, -75.43790999189302]}}, {"type": "Feature", "properties": {"norad_id": 31447, "name": "FENGYUN 1C DEB", "group": "fengyun-1c-debris", "lat": 61.430496485185614, "lon": 19.399030421225824, "alt_km": 804.4125352457504, "timestamp": "2025-12-20T20:38:44.725124+00:00", "meta": {"OBJECT_NAME": "FENGYUN 1C DEB", "OBJECT_ID": "1999-025BUK", "EPOCH": "2025-12-14T21:01:38.356896", "MEAN_MOTION": 14.2403744, "ECCENTRICITY": 0.02304397, "INCLINATION": 98.9919, "RA_OF_ASC_NODE": 30.1793, "ARG_OF_PERICENTER": 349.1545, "MEAN_ANOMALY": 10.471, "EPHEMERIS_TYPE": 0, "CLASSIFICATION_TYPE": "U", "NORAD_CAT_ID": 31447, "ELEMENT_SET_NO": 999, "REV_AT_EPOCH": 64882, "BSTAR": 0.00018562598, "MEAN_MOTION_DOT": 5.08e-06, "MEAN_MOTION_DDOT": 0}, "tle": {"line1": "1 31447U 99025BUK 25348.87613839  .00000508  00000+0  18563-3 0  9999", "line2": "2 31447  98.9919  30.1793 0230439 349.1545  10.4710 14.24037440648821"}}, "geometry": {"type": "Point", "coordinates": [19.399030421225824, 61.430496485185614]}}, {"type": "Feature", "properties": {"norad_id": 31448, "name": "FENGYUN 1C DEB", "group": "fengyun-1c-debris", "lat": -5.7822879682602535, "lon": -174.93529072240668, "alt_km": 760.4871911222162, "timestamp": "2025-12-20T20:38:44.725134+00:00", "meta": {"OBJECT_NAME": "FENGYUN 1C DEB", "OBJECT_ID": "1999-025BUL", "EPOCH": "2025-12-11T07:02:55.403520", "MEAN_MOTION": 14.278066, "ECCENTRICITY": 0.00588763, "INCLINATION": 98.5011, "RA_OF_ASC_NODE": 356.6233, "ARG_OF_PERICENTER": 208.3666, "MEAN_ANOMALY": 151.4306, "EPHEMERIS_TYPE": 0, "CLASSIFICATION_TYPE": "U", "NORAD_CAT_ID": 31448, "ELEMENT_SET_NO": 999, "REV_AT_EPOCH": 64283, "BSTAR": 0.0011152887, "MEAN_MOTION_DOT": 2.766e-05, "MEAN_MOTION_DDOT": 0}, "tle": {"line1": "1 31448U 99025BUL 25345.29369680  .00002766  00000+0  11153-2 0  9990", "line2": "2 31448  98.5011 356.6233 0058876 208.3666 151.4306 14.27806600642836"}}, "geometry": {"type": "Point", "coordinates": [-174.93529072240668, -5.7822879682602535]}}, {"type": "Feature", "properties": {"norad_id": 31449, "name": "FENGYUN 1C DEB", "group": "fengyun-1c-debris", "lat": -17.42096536177823, "lon": 55.99361303319704, "alt_km": 797.0668058377287, "timestamp": "2025-12-20T20:38:44.725145+00:00", "meta": {"OBJECT_NAME": "FENGYUN 1C DEB", "OBJECT_ID": "1999-025BUM", "EPOCH": "2025-12-20T10:40:43.619520", "MEAN_MOTION": 14.33719628, "ECCENTRICITY": 0.01441603, "INCLINATION": 98.5539, "RA_OF_ASC_NODE": 52.876, "ARG_OF_PERICENTER": 245.7554, "MEAN_ANOMALY": 112.8511, "EPHEMERIS_TYPE": 0, "CLASSIFICATION_TYPE": "U", "NORAD_CAT_ID": 31449, "ELEMENT_SET_NO": 999, "REV_AT_EPOCH": 97747, "BSTAR": 0.00016710121, "MEAN_MOTION_DOT": 4.73e-06, "MEAN_MOTION_DDOT": 0}, "tle": {"line1": "1 31449U 99025BUM 25354.44494930  .00000473  00000+0  16710-3 0  9993", "line2": "2 31449  98.5539  52.8760 0144160 245.7554 112.8511 14.33719628977475"}}, "geometry": {"type": "Point", "coordinates": [55.99361303319704, -17.42096536177823]}}, {"type": "Feature", "properties": {"norad_id": 31451, "name": "FENGYUN 1C DEB", "group": "fengyun-1c-debris", "lat": -64.75789700789382, "lon": -162.32861442302826, "alt_km": 842.0781443400374, "timestamp": "2025-12-20T20:38:44.725155+00:00", "meta": {"OBJECT_NAME": "FENGYUN 1C DEB", "OBJECT_ID": "1999-025BUP", "EPOCH": "2025-12-17T01:35:52.740960", "MEAN_MOTION": 14.13630438, "ECCENTRICITY": 0.00314143, "INCLINATION": 98.7632, "RA_OF_ASC_NODE": 33.0517, "ARG_OF_PERICENTER": 198.9237, "MEAN_ANOMALY": 191.5319, "EPHEMERIS_TYPE": 0, "CLASSIFICATION_TYPE": "U", "NORAD_CAT_ID": 31451, "ELEMENT_SET_NO": 999, "REV_AT_EPOCH": 96071, "BSTAR": 0.00034950868, "MEAN_MOTION_DOT": 6.19e-06, "MEAN_MOTION_DDOT": 0}, "tle": {"line1": "1 31451U 99025BUP 25351.06658265  .00000619  00000+0  34951-3 0  9993", "line2": "2 31451  98.7632  33.0517 0031414 198.9237 191.5319 14.13630438960717"}}, "geometry": {"type": "Point", "coordinates": [-162.32861442302826, -64.75789700789382]}}, {"type": "Feature", "properties": {"norad_id": 31452, "name": "FENGYUN 1C DEB", "group": "fengyun-1c-debris", "lat": -8.701506781584765, "lon": 160.2267431533497, "alt_km": 842.2868182222301, "timestamp": "2025-12-20T20:38:44.725165+00:00", "meta": {"OBJECT_NAME": "FENGYUN 1C DEB", "OBJECT_ID": "1999-025BUQ", "EPOCH": "2025-12-17T05:13:17.668704", "MEAN_MOTION": 14.15174584, "ECCENTRICITY": 0.00409624, "INCLINATION": 98.6577, "RA_OF_ASC_NODE": 338.0277, "ARG_OF_PERICENTER": 115.448, "MEAN_ANOMALY": 245.0941, "EPHEMERIS_TYPE": 0, "CLASSIFICATION_TYPE": "U", "NORAD_CAT_ID": 31452, "ELEMENT_SET_NO": 999, "REV_AT_EPOCH": 96269, "BSTAR": 0.00032143342, "MEAN_MOTION_DOT": 5.87e-06, "MEAN_MOTION_DDOT": 0}, "tle": {"line1": "1 31452U 99025BUQ 25351.21756561  .00000587  00000+0  32143-3 0  9994", "line2": "2 31452  98.6577 338.0277 0040962 115.4480 245.0941 14.15174584962690"}}, "geometry": {"type": "Point", "coordinates": [160.2267431533497, -8.701506781584765]}}, {"type": "Feature", "properties": {"norad_id": 31455, "name": "FENGYUN 1C DEB", "group": "fengyun-1c-debris", "lat": 57.788724685043604, "lon": -31.12194515319367, "alt_km": 712.2275807460137, "timestamp": "2025-12-20T20:38:44.725175+00:00", "meta": {"OBJECT_NAME": "FENGYUN 1C DEB", "OBJECT_ID": "1999-025BUT", "EPOCH": "2025-12-20T05:04:03.520704", "MEAN_MOTION": 14.11438755, "ECCENTRICITY": 0.0218316, "INCLINATION": 98.5747, "RA_OF_ASC_NODE": 342.1137, "ARG_OF_PERICENTER": 30.0004, "MEAN_ANOMALY": 331.3471, "EPHEMERIS_TYPE": 0, "CLASSIFICATION_TYPE": "U", "NORAD_CAT_ID": 31455, "ELEMENT_SET_NO": 999, "REV_AT_EPOCH": 96209, "BSTAR": 0.0002155, "MEAN_MOTION_DOT": 4.46e-06, "MEAN_MOTION_DDOT": 0}, "tle": {"line1": "1 31455U 99025BUT 25354.21115186  .00000446  00000+0  21550-3 0  9996", "line2": "2 31455  98.5747 342.1137 0218316  30.0004 331.3471 14.11438755962096"}}, "geometry": {"type": "Point", "coordinates": [-31.12194515319367, 57.788724685043604]}}]}